start=new Date('2021-12-21T00:00:00.000Z').valueOf();
sats=[{"CLASSIFICATION_TYPE":"U","SEMIMAJOR_AXIS":"6925.322","FILE":"3245895","DECAY_DATE":null,"MEAN_ELEMENT_THEORY":"SGP4","INCLINATION":"53.0559","SITE":"AFETR","EPHEMERIS_TYPE":"0","REV_AT_EPOCH":"4444","MEAN_MOTION":"15.06408765","MEAN_ANOMALY":"303.5220","TIME_SYSTEM":"UTC","CENTER_NAME":"EARTH","TLE_LINE2":"2 47818  53.0559 328.8839 0001831  56.5944 303.5220 15.06408765 44447","COUNTRY_CODE":"US","REF_FRAME":"TEME","RCS_SIZE":"LARGE","ARG_OF_PERICENTER":"56.5944","TLE_LINE1":"1 47818U 21018AH  21354.92682740  .00001680  00000-0  13160-3 0  9992","OBJECT_TYPE":"PAYLOAD","PERIOD":"95.592","RA_OF_ASC_NODE":"328.8839","GP_ID":"192112588","BSTAR":"0.00013160000000","NORAD_CAT_ID":"47818","ECCENTRICITY":"0.00018310","PERIAPSIS":"545.919","ELEMENT_SET_NO":"999","OBJECT_ID":"2021-018AH","APOAPSIS":"548.455","MEAN_MOTION_DOT":"0.00001680","MEAN_MOTION_DDOT":"0.0000000000000","LAUNCH_DATE":"2021-03-11","OBJECT_NAME":"STARLINK-2401","EPOCH":"2021-12-20T22:14:37.887360"},{"REF_FRAME":"TEME","RA_OF_ASC_NODE":"325.1913","PERIOD":"95.591","OBJECT_TYPE":"PAYLOAD","TLE_LINE1":"1 47819U 21018AJ  21354.63795346  .00010571  00000-0  72714-3 0  9997","ARG_OF_PERICENTER":"51.7720","RCS_SIZE":"MEDIUM","ELEMENT_SET_NO":"999","OBJECT_ID":"2021-018AJ","PERIAPSIS":"545.953","ECCENTRICITY":"0.00017370","NORAD_CAT_ID":"47819","GP_ID":"192112840","BSTAR":"0.00072714000000","EPOCH":"2021-12-20T15:18:39.178944","LAUNCH_DATE":"2021-03-11","OBJECT_NAME":"STARLINK-2402","MEAN_MOTION_DDOT":"0.0000000000000","MEAN_MOTION_DOT":"0.00010571","APOAPSIS":"548.359","DECAY_DATE":null,"FILE":"3245895","SEMIMAJOR_AXIS":"6925.291","CLASSIFICATION_TYPE":"U","REV_AT_EPOCH":"4453","EPHEMERIS_TYPE":"0","SITE":"AFETR","INCLINATION":"53.0539","MEAN_ELEMENT_THEORY":"SGP4","MEAN_ANOMALY":"308.3425","MEAN_MOTION":"15.06418879","COUNTRY_CODE":"US","TLE_LINE2":"2 47819  53.0539 325.1913 0001737  51.7720 308.3425 15.06418879 44530","CENTER_NAME":"EARTH","TIME_SYSTEM":"UTC"},{"CLASSIFICATION_TYPE":"U","SEMIMAJOR_AXIS":"6925.332","FILE":"3245895","DECAY_DATE":null,"MEAN_ELEMENT_THEORY":"SGP4","INCLINATION":"53.0563","EPHEMERIS_TYPE":"0","SITE":"AFETR","REV_AT_EPOCH":"4442","MEAN_MOTION":"15.06405332","MEAN_ANOMALY":"304.2850","TIME_SYSTEM":"UTC","CENTER_NAME":"EARTH","TLE_LINE2":"2 47820  53.0563 334.0829 0001856  55.8314 304.2850 15.06405332 44425","COUNTRY_CODE":"US","REF_FRAME":"TEME","RCS_SIZE":"LARGE","ARG_OF_PERICENTER":"55.8314","TLE_LINE1":"1 47820U 21018AK  21354.88398129  .00001475  00000-0  11791-3 0  9995","OBJECT_TYPE":"PAYLOAD","PERIOD":"95.592","RA_OF_ASC_NODE":"334.0829","NORAD_CAT_ID":"47820","GP_ID":"192113091","BSTAR":"0.00011791000000","ECCENTRICITY":"0.00018560","PERIAPSIS":"545.912","OBJECT_ID":"2021-018AK","ELEMENT_SET_NO":"999","APOAPSIS":"548.483","MEAN_MOTION_DOT":"0.00001475","MEAN_MOTION_DDOT":"0.0000000000000","LAUNCH_DATE":"2021-03-11","OBJECT_NAME":"STARLINK-2403","EPOCH":"2021-12-20T21:12:55.983456"},{"RCS_SIZE":"LARGE","ARG_OF_PERICENTER":"43.0776","OBJECT_TYPE":"PAYLOAD","TLE_LINE1":"1 47821U 21018AL  21354.66278512 -.00007574  00000-0 -48956-3 0  9996","PERIOD":"95.590","RA_OF_ASC_NODE":"325.0778","REF_FRAME":"TEME","APOAPSIS":"548.498","MEAN_MOTION_DOT":"-0.00007574","MEAN_MOTION_DDOT":"0.0000000000000","LAUNCH_DATE":"2021-03-11","OBJECT_NAME":"STARLINK-2406","EPOCH":"2021-12-20T15:54:24.634368","GP_ID":"192111839","BSTAR":"-0.00048956000000","NORAD_CAT_ID":"47821","ECCENTRICITY":"0.00020320","PERIAPSIS":"545.684","ELEMENT_SET_NO":"999","OBJECT_ID":"2021-018AL","MEAN_ELEMENT_THEORY":"SGP4","INCLINATION":"53.0554","SITE":"AFETR","EPHEMERIS_TYPE":"0","REV_AT_EPOCH":"4447","CLASSIFICATION_TYPE":"U","SEMIMAJOR_AXIS":"6925.226","FILE":"3245895","DECAY_DATE":null,"TIME_SYSTEM":"UTC","CENTER_NAME":"EARTH","TLE_LINE2":"2 47821  53.0554 325.0778 0002032  43.0776 317.0372 15.06440011 44476","COUNTRY_CODE":"US","MEAN_ANOMALY":"317.0372","MEAN_MOTION":"15.06440011"},{"TIME_SYSTEM":"UTC","CENTER_NAME":"EARTH","TLE_LINE2":"2 47822  53.0560 333.8227 0002119  53.4516 306.6668 15.06406901 44385","COUNTRY_CODE":"US","MEAN_ANOMALY":"306.6668","MEAN_MOTION":"15.06406901","MEAN_ELEMENT_THEORY":"SGP4","EPHEMERIS_TYPE":"0","SITE":"AFETR","INCLINATION":"53.0560","REV_AT_EPOCH":"4438","CLASSIFICATION_TYPE":"U","SEMIMAJOR_AXIS":"6925.327","FILE":"3245895","DECAY_DATE":null,"APOAPSIS":"548.660","MEAN_MOTION_DDOT":"0.0000000000000","MEAN_MOTION_DOT":"0.00001021","EPOCH":"2021-12-20T22:32:32.827776","LAUNCH_DATE":"2021-03-11","OBJECT_NAME":"STARLINK-2407","BSTAR":"0.00008743300000","GP_ID":"192112089","NORAD_CAT_ID":"47822","PERIAPSIS":"545.725","ECCENTRICITY":"0.00021190","OBJECT_ID":"2021-018AM","ELEMENT_SET_NO":"999","RCS_SIZE":"LARGE","OBJECT_TYPE":"PAYLOAD","TLE_LINE1":"1 47822U 21018AM  21354.93926884  .00001021  00000-0  87433-4 0  9992","ARG_OF_PERICENTER":"53.4516","RA_OF_ASC_NODE":"333.8227","PERIOD":"95.592","REF_FRAME":"TEME"},{"OBJECT_NAME":"STARLINK-2408","LAUNCH_DATE":"2021-03-11","EPOCH":"2021-12-20T21:19:33.870144","MEAN_MOTION_DOT":"0.00002095","MEAN_MOTION_DDOT":"0.0000000000000","APOAPSIS":"548.568","OBJECT_ID":"2021-018AN","ELEMENT_SET_NO":"999","ECCENTRICITY":"0.00019880","PERIAPSIS":"545.815","GP_ID":"192113340","BSTAR":"0.00015948000000","NORAD_CAT_ID":"47823","PERIOD":"95.592","RA_OF_ASC_NODE":"324.0602","ARG_OF_PERICENTER":"54.6827","TLE_LINE1":"1 47823U 21018AN  21354.88858646  .00002095  00000-0  15948-3 0  9990","OBJECT_TYPE":"PAYLOAD","RCS_SIZE":"LARGE","REF_FRAME":"TEME","COUNTRY_CODE":"US","TLE_LINE2":"2 47823  53.0561 324.0602 0001988  54.6827 305.4347 15.06407250 44511","CENTER_NAME":"EARTH","TIME_SYSTEM":"UTC","MEAN_ANOMALY":"305.4347","MEAN_MOTION":"15.06407250","REV_AT_EPOCH":"4451","INCLINATION":"53.0561","EPHEMERIS_TYPE":"0","SITE":"AFETR","MEAN_ELEMENT_THEORY":"SGP4","DECAY_DATE":null,"FILE":"3245895","SEMIMAJOR_AXIS":"6925.326","CLASSIFICATION_TYPE":"U"},{"REF_FRAME":"TEME","RCS_SIZE":"LARGE","PERIOD":"95.592","RA_OF_ASC_NODE":"326.1971","ARG_OF_PERICENTER":"55.5807","TLE_LINE1":"1 47824U 21018AP  21354.41310675  .00002653  00000-0  19691-3 0  9994","OBJECT_TYPE":"PAYLOAD","GP_ID":"192078246","NORAD_CAT_ID":"47824","BSTAR":"0.00019691000000","OBJECT_ID":"2021-018AP","ELEMENT_SET_NO":"999","ECCENTRICITY":"0.00020090","PERIAPSIS":"545.817","APOAPSIS":"548.599","LAUNCH_DATE":"2021-03-11","OBJECT_NAME":"STARLINK-2409","EPOCH":"2021-12-20T09:54:52.423200","MEAN_MOTION_DOT":"0.00002653","MEAN_MOTION_DDOT":"0.0000000000000","SEMIMAJOR_AXIS":"6925.343","CLASSIFICATION_TYPE":"U","DECAY_DATE":null,"FILE":"3245363","INCLINATION":"53.0546","EPHEMERIS_TYPE":"0","SITE":"AFETR","MEAN_ELEMENT_THEORY":"SGP4","REV_AT_EPOCH":"4443","MEAN_ANOMALY":"304.5371","MEAN_MOTION":"15.06401815","CENTER_NAME":"EARTH","TIME_SYSTEM":"UTC","COUNTRY_CODE":"US","TLE_LINE2":"2 47824  53.0546 326.1971 0002009  55.5807 304.5371 15.06401815 44439"},{"REF_FRAME":"TEME","PERIOD":"95.591","RA_OF_ASC_NODE":"324.0141","ARG_OF_PERICENTER":"66.0414","OBJECT_TYPE":"PAYLOAD","TLE_LINE1":"1 47825U 21018AQ  21354.89596498 -.00000032  00000-0  16757-4 0  9997","RCS_SIZE":"LARGE","OBJECT_ID":"2021-018AQ","ELEMENT_SET_NO":"999","ECCENTRICITY":"0.00016980","PERIAPSIS":"546.000","BSTAR":"0.00001675700000","GP_ID":"192112339","NORAD_CAT_ID":"47825","LAUNCH_DATE":"2021-03-11","OBJECT_NAME":"STARLINK-2410","EPOCH":"2021-12-20T21:30:11.374272","MEAN_MOTION_DOT":"-0.00000032","MEAN_MOTION_DDOT":"0.0000000000000","APOAPSIS":"548.352","DECAY_DATE":null,"FILE":"3245895","SEMIMAJOR_AXIS":"6925.311","CLASSIFICATION_TYPE":"U","REV_AT_EPOCH":"4451","INCLINATION":"53.0563","SITE":"AFETR","EPHEMERIS_TYPE":"0","MEAN_ELEMENT_THEORY":"SGP4","MEAN_ANOMALY":"294.0752","MEAN_MOTION":"15.06412122","COUNTRY_CODE":"US","TLE_LINE2":"2 47825  53.0563 324.0141 0001698  66.0414 294.0752 15.06412122 44517","CENTER_NAME":"EARTH","TIME_SYSTEM":"UTC"},{"OBJECT_ID":"2021-018AR","ELEMENT_SET_NO":"999","PERIAPSIS":"545.845","ECCENTRICITY":"0.00019700","GP_ID":"192112589","NORAD_CAT_ID":"47826","BSTAR":"0.00002894100000","EPOCH":"2021-12-20T21:24:52.715520","LAUNCH_DATE":"2021-03-11","OBJECT_NAME":"STARLINK-2411","MEAN_MOTION_DDOT":"0.0000000000000","MEAN_MOTION_DOT":"0.00000149","APOAPSIS":"548.574","REF_FRAME":"TEME","RA_OF_ASC_NODE":"324.0449","PERIOD":"95.592","TLE_LINE1":"1 47826U 21018AR  21354.89227680  .00000149  00000-0  28941-4 0  9998","OBJECT_TYPE":"PAYLOAD","ARG_OF_PERICENTER":"55.5397","RCS_SIZE":"LARGE","MEAN_MOTION":"15.06401375","MEAN_ANOMALY":"304.5777","COUNTRY_CODE":"US","TLE_LINE2":"2 47826  53.0566 324.0449 0001970  55.5397 304.5777 15.06401375 44510","CENTER_NAME":"EARTH","TIME_SYSTEM":"UTC","DECAY_DATE":null,"FILE":"3245895","SEMIMAJOR_AXIS":"6925.344","CLASSIFICATION_TYPE":"U","REV_AT_EPOCH":"4451","EPHEMERIS_TYPE":"0","SITE":"AFETR","INCLINATION":"53.0566","MEAN_ELEMENT_THEORY":"SGP4"},{"REV_AT_EPOCH":"4471","MEAN_ELEMENT_THEORY":"SGP4","SITE":"AFETR","EPHEMERIS_TYPE":"0","INCLINATION":"53.0552","FILE":"3245895","DECAY_DATE":null,"CLASSIFICATION_TYPE":"U","SEMIMAJOR_AXIS":"6925.324","TLE_LINE2":"2 47827  53.0552 313.9318 0002044  59.3810 300.7381 15.06408032 44711","COUNTRY_CODE":"US","TIME_SYSTEM":"UTC","CENTER_NAME":"EARTH","MEAN_MOTION":"15.06408032","MEAN_ANOMALY":"300.7381","TLE_LINE1":"1 47827U 21018AS  21354.91805923  .00004238  00000-0  30321-3 0  9991","OBJECT_TYPE":"PAYLOAD","ARG_OF_PERICENTER":"59.3810","RA_OF_ASC_NODE":"313.9318","PERIOD":"95.592","RCS_SIZE":"LARGE","REF_FRAME":"TEME","MEAN_MOTION_DDOT":"0.0000000000000","MEAN_MOTION_DOT":"0.00004238","EPOCH":"2021-12-20T22:02:00.317472","OBJECT_NAME":"STARLINK-2413","LAUNCH_DATE":"2021-03-11","APOAPSIS":"548.604","PERIAPSIS":"545.773","ECCENTRICITY":"0.00020440","ELEMENT_SET_NO":"999","OBJECT_ID":"2021-018AS","GP_ID":"192112841","NORAD_CAT_ID":"47827","BSTAR":"0.00030321000000"}];
